{"type":"FeatureCollection","features":[{"type":"Feature","properties":{"name":"Porvoo Kilpilahti satama","area":341.6011154730714},"geometry":{"type":"Polygon","coordinates":[[[25.328723343587132,60.4189933878015],[25.400555120018467,60.152053630362666],[25.416814922948166,60.12357007177404],[25.64905360912374,60.30092781129158],[25.381940947944376,60.47742434636337],[25.328723343587132,60.4189933878015]]]}},{"type":"Feature","properties":{"name":"Jomala Maarianhamina lentoasema","area":1204.7207200201688},"geometry":{"type":"Polygon","coordinates":[[[19.442608883878357,59.88957859987963],[19.769091899622772,59.99312789683708],[19.951786163329235,60.13891781774981],[19.62449465250494,60.695101151530274],[19.442608883878357,59.88957859987963]]]}},{"type":"Feature","properties":{"name":"Parainen Utö","area":5585.826115083194},"geometry":{"type":"Polygon","coordinates":[[[20.83834922955765,59.727074697079324],[20.904829201644336,59.47832022567384],[21.38,59.44],[21.82510038968406,59.45309118793188],[21.798927245112473,59.690108699791196],[21.231447111110583,60.242144991811024],[20.83834922955765,59.727074697079324]]]}},{"type":"Feature","properties":{"name":"Lemland Nyhamn","area":3534.259706883505},"geometry":{"type":"Polygon","coordinates":[[[19.44203205146641,59.888191110983286],[19.8,59.64],[19.92,59.56],[19.94703694587524,59.555493842354124],[20.232616977755356,59.802857904550216],[20.12191987490134,60.0457586934389],[20.083082554090787,60.0516286887168],[19.769091899622772,59.99312789683708],[19.442608883878357,59.88957859987963],[19.44203205146641,59.888191110983286]]]}},{"type":"Feature","properties":{"name":"Jomala Jomalaby","area":3852.025827865104},"geometry":{"type":"Polygon","coordinates":[[[19.62449465250494,60.695101151530274],[19.951786163329235,60.13891781774981],[20.083082554090787,60.0516286887168],[20.12191987490134,60.0457586934389],[20.287369281766626,60.869797494074554],[20.28144906115253,60.88111585098982],[20.02,60.77],[19.630380108669023,60.73612000944948],[19.62449465250494,60.695101151530274]]]}},{"type":"Feature","properties":{"name":"Hammarland Märket","area":9419.120919481558},"geometry":{"type":"Polygon","coordinates":[[[19.04,60.2],[19.05,60.16],[19.44203205146641,59.888191110983286],[19.442608883878357,59.88957859987963],[19.62449465250494,60.695101151530274],[19.630380108669023,60.73612000944948],[19.56,60.73],[19.2,60.65],[19.18,60.63],[19.13,60.4],[19.07,60.26],[19.04,60.2]]]}},{"type":"Feature","properties":{"name":"Kökar Bogskär","area":5860.807297852597},"geometry":{"type":"Polygon","coordinates":[[[19.94703694587524,59.555493842354124],[19.98,59.55],[20.33,59.41],[20.76,59.49],[20.904829201644336,59.47832022567384],[20.83834922955765,59.727074697079324],[20.633697888738777,59.835551936603714],[20.232616977755356,59.802857904550216],[19.94703694587524,59.555493842354124]]]}},{"type":"Feature","properties":{"name":"Parainen Fagerholm","area":2266.254786989568},"geometry":{"type":"Polygon","coordinates":[[[21.231447111110583,60.242144991811024],[21.798927245112473,59.690108699791196],[21.997166316218568,60.09548606849601],[21.639703422552348,60.62999546652942],[21.540124082201945,60.612206328309846],[21.237124248382536,60.27898442350823],[21.231447111110583,60.242144991811024]]]}},{"type":"Feature","properties":{"name":"Kumlinge kirkonkylä","area":2794.7597925283803},"geometry":{"type":"Polygon","coordinates":[[[20.317392699459383,60.83369373517744],[20.633697888738777,59.835551936603714],[20.83834922955765,59.727074697079324],[21.231447111110583,60.242144991811024],[21.237124248382536,60.27898442350823],[20.317392699459383,60.83369373517744]]]}},{"type":"Feature","properties":{"name":"Hanko Russarö","area":2960.4902323980805},"geometry":{"type":"Polygon","coordinates":[[[22.728485565545462,59.58206621348347],[22.86,59.6],[23.145860491185466,59.60697220710208],[23.069186167309415,59.934541957439215],[22.728485565545462,59.58206621348347]]]}},{"type":"Feature","properties":{"name":"Kaarina Yltöinen","area":1477.2031480022795},"geometry":{"type":"Polygon","coordinates":[[[22.327493266296198,60.211817514492516],[22.32854464768128,60.15873207943609],[22.44451735468908,60.078400005854995],[22.833988034957713,60.45013710203572],[22.844716851597788,60.913914584977206],[22.607320934269946,60.85752880580496],[22.34305691167314,60.297863788007106],[22.327493266296198,60.211817514492516]]]}},{"type":"Feature","properties":{"name":"Kemiönsaari Vänö","area":4557.921835715272},"geometry":{"type":"Polygon","coordinates":[[[21.798927245112473,59.690108699791196],[21.82510038968406,59.45309118793188],[22.4,59.47],[22.526160425222635,59.52256684384277],[22.555617479088973,59.870644172380345],[22.44451735468908,60.078400005854995],[22.32854464768128,60.15873207943609],[21.997166316218568,60.09548606849601],[21.798927245112473,59.690108699791196]]]}},{"type":"Feature","properties":{"name":"Hanko Tulliniemi","area":1052.987320145195},"geometry":{"type":"Polygon","coordinates":[[[22.526160425222635,59.52256684384277],[22.64,59.57],[22.728485565545462,59.58206621348347],[23.069186167309415,59.934541957439215],[23.054322651505167,60.076516199192035],[23.045350209736007,60.07969801294282],[22.555617479088973,59.870644172380345],[22.526160425222635,59.52256684384277]]]}},{"type":"Feature","properties":{"name":"Turku Rajakari","area":1223.3063744668057},"geometry":{"type":"Polygon","coordinates":[[[21.639703422552348,60.62999546652942],[21.997166316218568,60.09548606849601],[22.32854464768128,60.15873207943609],[22.327493266296198,60.211817514492516],[21.814353267086858,60.763790092389904],[21.639703422552348,60.62999546652942]]]}},{"type":"Feature","properties":{"name":"Turku Artukainen","area":616.9715149872501},"geometry":{"type":"Polygon","coordinates":[[[21.814353267086858,60.763790092389904],[22.327493266296198,60.211817514492516],[22.34305691167314,60.297863788007106],[21.967879840049168,60.91311498969411],[21.814353267086858,60.763790092389904]]]}},{"type":"Feature","properties":{"name":"Kemiönsaari Kemiö","area":1069.9082046676776},"geometry":{"type":"Polygon","coordinates":[[[22.44451735468908,60.078400005854995],[22.555617479088973,59.870644172380345],[23.045350209736007,60.07969801294282],[22.833988034957713,60.45013710203572],[22.44451735468908,60.078400005854995]]]}},{"type":"Feature","properties":{"name":"Hanko Tvärminne","area":1641.0177541648588},"geometry":{"type":"Polygon","coordinates":[[[23.054322651505167,60.076516199192035],[23.069186167309415,59.934541957439215],[23.145860491185466,59.60697220710208],[23.27,59.61],[23.395978934504594,59.62326094047417],[23.434390343233485,60.16355145337088],[23.42304778531668,60.17088685116473],[23.054322651505167,60.076516199192035]]]}},{"type":"Feature","properties":{"name":"Salo Kärkkä","area":1969.7909367830814},"geometry":{"type":"Polygon","coordinates":[[[22.833988034957713,60.45013710203572],[23.045350209736007,60.07969801294282],[23.054322651505167,60.076516199192035],[23.42304778531668,60.17088685116473],[23.359941817729954,60.54634742568825],[22.89253782977953,60.95562995875708],[22.844716851597788,60.913914584977206],[22.833988034957713,60.45013710203572]]]}},{"type":"Feature","properties":{"name":"Raasepori Jussarö","area":3399.4390434626566},"geometry":{"type":"Polygon","coordinates":[[[23.395978934504594,59.62326094047417],[23.46,59.63],[23.841378251314325,59.68500647855495],[23.78764508261804,59.89968114845325],[23.691669087845376,60.13289265956091],[23.434390343233485,60.16355145337088],[23.395978934504594,59.62326094047417]]]}},{"type":"Feature","properties":{"name":"Salo Kiikala lentokenttä","area":1140.4446390402934},"geometry":{"type":"Polygon","coordinates":[[[23.359941817729954,60.54634742568825],[23.42304778531668,60.17088685116473],[23.434390343233485,60.16355145337088],[23.691669087845376,60.13289265956091],[23.752632348738473,60.1777980591206],[23.885915558463715,60.42032144702021],[23.61095356490074,60.65506273588734],[23.359941817729954,60.54634742568825]]]}},{"type":"Feature","properties":{"name":"Vantaa Helsinki-Vantaan lentoasema","area":352.1299951270588},"geometry":{"type":"Polygon","coordinates":[[[24.770458700240752,60.387849984203335],[24.862071436982927,60.27571817280511],[24.981531268464966,60.26490719993227],[25.152176975483435,60.4274428792409],[25.004310937107395,60.536811016219126],[24.770458700240752,60.387849984203335]]]}},{"type":"Feature","properties":{"name":"Inkoo Bågaskär","area":1644.547440980779},"geometry":{"type":"Polygon","coordinates":[[[23.78764508261804,59.89968114845325],[23.841378251314325,59.68500647855495],[24.175680666275746,59.73322317302054],[24.185182214996452,60.01537384461629],[23.78764508261804,59.89968114845325]]]}},{"type":"Feature","properties":{"name":"Helsinki Kaisaniemi","area":60.13369511179665},"geometry":{"type":"Polygon","coordinates":[[[24.864644687842404,60.09828888369057],[25.003020701644644,60.1590788027479],[24.86712742466118,60.24069286852245],[24.864644687842404,60.09828888369057]]]}},{"type":"Feature","properties":{"name":"Lohja Porla","area":910.9720826135776},"geometry":{"type":"Polygon","coordinates":[[[23.752632348738473,60.1777980591206],[24.19912247682193,60.081447555538105],[24.301574347286895,60.176350606567624],[24.11148226168754,60.557112830467965],[23.885915558463715,60.42032144702021],[23.752632348738473,60.1777980591206]]]}},{"type":"Feature","properties":{"name":"Vihti Maasoja","area":1061.9545298365647},"geometry":{"type":"Polygon","coordinates":[[[24.11148226168754,60.557112830467965],[24.301574347286895,60.176350606567624],[24.345416396922403,60.17209847343901],[24.599753273581523,60.50969790491876],[24.51753589633165,60.69737204114427],[24.195578621356308,60.748961749380044],[24.18477671975997,60.74781090650312],[24.11148226168754,60.557112830467965]]]}},{"type":"Feature","properties":{"name":"Helsinki Harmaja","area":164.3304983350648},"geometry":{"type":"Polygon","coordinates":[[[24.84939412254004,60.05894095981641],[25.08279059208642,59.98557667952093],[25.08560871050751,60.14342014095775],[25.04104753249012,60.164545038361005],[25.003020701644644,60.1590788027479],[24.864644687842404,60.09828888369057],[24.84939412254004,60.05894095981641]]]}},{"type":"Feature","properties":{"name":"Kirkkonummi Mäkiluoto","area":3366.260030294632},"geometry":{"type":"Polygon","coordinates":[[[24.175680666275746,59.73322317302054],[24.5,59.78],[24.64450773667007,59.811168335360215],[24.63844206171051,59.93100077811413],[24.575749393720308,60.03717639091799],[24.345416396922403,60.17209847343901],[24.301574347286895,60.176350606567624],[24.19912247682193,60.081447555538105],[24.185182214996452,60.01537384461629],[24.175680666275746,59.73322317302054]]]}},{"type":"Feature","properties":{"name":"Helsinki Helsingin majakka","area":3755.284616388694},"geometry":{"type":"Polygon","coordinates":[[[24.63844206171051,59.93100077811413],[24.64450773667007,59.811168335360215],[25.01,59.89],[25.137064084788115,59.89],[25.08279059208642,59.98557667952093],[24.84939412254004,60.05894095981641],[24.63844206171051,59.93100077811413]]]}},{"type":"Feature","properties":{"name":"Helsinki Kumpula","area":64.16621401578016},"geometry":{"type":"Polygon","coordinates":[[[24.862071436982927,60.27571817280511],[24.86712742466118,60.24069286852245],[25.003020701644644,60.1590788027479],[25.04104753249012,60.164545038361005],[24.981531268464966,60.26490719993227],[24.862071436982927,60.27571817280511]]]}},{"type":"Feature","properties":{"name":"Helsinki Malmi lentokenttä","area":155.2893562050114},"geometry":{"type":"Polygon","coordinates":[[[24.981531268464966,60.26490719993227],[25.04104753249012,60.164545038361005],[25.08560871050751,60.14342014095775],[25.09873235393172,60.15629476545284],[25.175872919090505,60.41808881792427],[25.152176975483435,60.4274428792409],[24.981531268464966,60.26490719993227]]]}},{"type":"Feature","properties":{"name":"Porvoo Kalbådagrund","area":6146.0017856241175},"geometry":{"type":"Polygon","coordinates":[[[25.352753449925817,59.89],[25.62,59.89],[26.04,59.94],[26.077701904331594,59.97016152346528],[26.053655067060365,60.04076812190107],[25.418026379661757,60.118480678483635],[25.352753449925817,59.89]]]}},{"type":"Feature","properties":{"name":"Porvoo Emäsalo","area":764.4246373431158},"geometry":{"type":"Polygon","coordinates":[[[25.416814922948166,60.12357007177404],[25.418026379661757,60.118480678483635],[26.053655067060365,60.04076812190107],[26.02804578965802,60.33755632645125],[25.64905360912374,60.30092781129158],[25.416814922948166,60.12357007177404]]]}},{"type":"Feature","properties":{"name":"Porvoo Harabacka","area":1280.6878227390725},"geometry":{"type":"Polygon","coordinates":[[[25.381940947944376,60.47742434636337],[25.64905360912374,60.30092781129158],[26.02804578965802,60.33755632645125],[26.073202328501015,60.66197995867065],[26.052182994334665,60.67348265902095],[25.500700031891647,60.68568674907553],[25.381940947944376,60.47742434636337]]]}},{"type":"Feature","properties":{"name":"Kotka Rankki","area":1229.1766517132035},"geometry":{"type":"Polygon","coordinates":[[[26.719226227107697,60.24393135391324],[26.737450019324676,60.151320005153245],[26.77,60.16],[27.0047616997211,60.16],[27.193669269723213,60.64152032258829],[27.11079835222879,60.63991839341701],[26.794710071791442,60.494365410020556],[26.719226227107697,60.24393135391324]]]}},{"type":"Feature","properties":{"name":"Loviisa Orrengrund","area":5642.738642377751},"geometry":{"type":"Polygon","coordinates":[[[26.02804578965802,60.33755632645125],[26.053655067060365,60.04076812190107],[26.077701904331594,59.97016152346528],[26.09,59.98],[26.31,60.01],[26.5,60.11],[26.62,60.12],[26.737450019324676,60.151320005153245],[26.719226227107697,60.24393135391324],[26.094716810843643,60.67123193940572],[26.073202328501015,60.66197995867065],[26.02804578965802,60.33755632645125]]]}},{"type":"Feature","properties":{"name":"Kotka Haapasaari","area":8025.809461737149},"geometry":{"type":"Polygon","coordinates":[[[27.0047616997211,60.16],[27.3,60.16],[27.46,60.18],[27.521746333679697,60.21832531055981],[27.294104737971495,60.680273769127204],[27.193669269723213,60.64152032258829],[27.0047616997211,60.16]]]}},{"type":"Feature","properties":{"name":"Pori lentoasema","area":1006.1550976113533},"geometry":{"type":"Polygon","coordinates":[[[21.73530228688898,61.231717473375824],[21.953123230359445,61.034309879536075],[22.16845878138611,61.59324476011279],[22.046269333598705,61.80477230942357],[21.79192670115749,61.46434239915819],[21.73530228688898,61.231717473375824]]]}},{"type":"Feature","properties":{"name":"Kustavi Isokari","area":4925.112536834452},"geometry":{"type":"Polygon","coordinates":[[[20.28144906115253,60.88111585098982],[20.287369281766626,60.869797494074554],[20.317392699459383,60.83369373517744],[21.237124248382536,60.27898442350823],[21.540124082201945,60.612206328309846],[21.395200845057687,60.783006466646974],[20.752624272800258,61.20260113666774],[20.74,61.15],[20.42,60.94],[20.28144906115253,60.88111585098982]]]}},{"type":"Feature","properties":{"name":"Rauma Kylmäpihlaja","area":2156.4216869452316},"geometry":{"type":"Polygon","coordinates":[[[20.752624272800258,61.20260113666774],[21.395200845057687,60.783006466646974],[21.417993743482732,61.375705520551655],[20.816024500797532,61.466768753323045],[20.752624272800258,61.20260113666774]]]}},{"type":"Feature","properties":{"name":"Pori rautatieasema","area":843.6199813480243},"geometry":{"type":"Polygon","coordinates":[[[21.598450912466685,61.605052063660565],[21.79192670115749,61.46434239915819],[22.046269333598705,61.80477230942357],[21.968015114461792,61.95280942554013],[21.76092578517612,62.04156452780171],[21.598450912466685,61.605052063660565]]]}},{"type":"Feature","properties":{"name":"Turku lentoasema","area":1135.8051401729829},"geometry":{"type":"Polygon","coordinates":[[[21.967879840049168,60.91311498969411],[22.34305691167314,60.297863788007106],[22.607320934269946,60.85752880580496],[21.96976896884653,60.91543933642982],[21.967879840049168,60.91311498969411]]]}},{"type":"Feature","properties":{"name":"Kokemäki Tulkkila","area":3461.033083110125},"geometry":{"type":"Polygon","coordinates":[[[21.953123230359445,61.034309879536075],[21.96976896884653,60.91543933642982],[22.607320934269946,60.85752880580496],[22.844716851597788,60.913914584977206],[22.89253782977953,60.95562995875708],[22.997906384097075,61.23218010751514],[22.97184713904105,61.43200470301472],[22.16845878138611,61.59324476011279],[21.953123230359445,61.034309879536075]]]}},{"type":"Feature","properties":{"name":"Jokioinen Ilmala","area":2285.6579691351662},"geometry":{"type":"Polygon","coordinates":[[[22.89253782977953,60.95562995875708],[23.359941817729954,60.54634742568825],[23.61095356490074,60.65506273588734],[23.83142836649841,61.060112204014715],[23.826175320121113,61.06211567159827],[22.997906384097075,61.23218010751514],[22.89253782977953,60.95562995875708]]]}},{"type":"Feature","properties":{"name":"Pirkkala Tampere-Pirkkala lentoasema","area":2426.2744934232087},"geometry":{"type":"Polygon","coordinates":[[[22.97184713904105,61.43200470301472],[22.997906384097075,61.23218010751514],[23.826175320121113,61.06211567159827],[23.661916098022772,61.50367119137872],[23.397571519426783,61.85727952448684],[23.251111887784674,61.844336557799004],[23.037965773714955,61.614772481258434],[22.97184713904105,61.43200470301472]]]}},{"type":"Feature","properties":{"name":"Tampere Härmälä","area":658.573541325968},"geometry":{"type":"Polygon","coordinates":[[[23.661916098022772,61.50367119137872],[23.826175320121113,61.06211567159827],[23.83142836649841,61.060112204014715],[23.89882976800782,61.064952515668665],[24.126830564754385,61.44014361798005],[23.661916098022772,61.50367119137872]]]}},{"type":"Feature","properties":{"name":"Somero Salkola","area":1292.8116239853998},"geometry":{"type":"Polygon","coordinates":[[[23.61095356490074,60.65506273588734],[23.885915558463715,60.42032144702021],[24.11148226168754,60.557112830467965],[24.18477671975997,60.74781090650312],[23.89882976800782,61.064952515668665],[23.83142836649841,61.060112204014715],[23.61095356490074,60.65506273588734]]]}},{"type":"Feature","properties":{"name":"Hyvinkää Hyvinkäänkylä","area":980.9162650521538},"geometry":{"type":"Polygon","coordinates":[[[24.51753589633165,60.69737204114427],[24.599753273581523,60.50969790491876],[24.756942299300412,60.388352580084394],[24.770458700240752,60.387849984203335],[25.004310937107395,60.536811016219126],[24.983440349666154,60.792744460516616],[24.777908686701494,60.89836994487526],[24.51753589633165,60.69737204114427]]]}},{"type":"Feature","properties":{"name":"Hämeenlinna Katinen","area":1295.810489192246},"geometry":{"type":"Polygon","coordinates":[[[24.195578621356308,60.748961749380044],[24.51753589633165,60.69737204114427],[24.777908686701494,60.89836994487526],[24.727738482257898,61.39825277089204],[24.66057946468943,61.42279772089639],[24.195578621356308,60.748961749380044]]]}},{"type":"Feature","properties":{"name":"Hattula Lepaa","area":1799.5205209900453},"geometry":{"type":"Polygon","coordinates":[[[23.89882976800782,61.064952515668665],[24.18477671975997,60.74781090650312],[24.195578621356308,60.748961749380044],[24.66057946468943,61.42279772089639],[24.552411271538922,61.49288362117786],[24.149477541991555,61.472207215432604],[24.126830564754385,61.44014361798005],[23.89882976800782,61.064952515668665]]]}},{"type":"Feature","properties":{"name":"Hämeenlinna Lammi Pappila","area":1855.8665533302922},"geometry":{"type":"Polygon","coordinates":[[[24.727738482257898,61.39825277089204],[24.777908686701494,60.89836994487526],[24.983440349666154,60.792744460516616],[25.315543783078503,60.913465441190354],[25.332567765692,61.03815223616996],[25.142323726992757,61.4722633076621],[25.097670862014034,61.50431464532403],[24.965113871105263,61.46751675487312],[24.727738482257898,61.39825277089204]]]}},{"type":"Feature","properties":{"name":"Asikkala Pulkkilanharju","area":1268.7852448983017},"geometry":{"type":"Polygon","coordinates":[[[25.142323726992757,61.4722633076621],[25.332567765692,61.03815223616996],[25.779953770713337,61.19211054647448],[25.81723584905703,61.495186996648826],[25.142323726992757,61.4722633076621]]]}},{"type":"Feature","properties":{"name":"Kouvola Utti lentoasema","area":1967.8328496289619},"geometry":{"type":"Polygon","coordinates":[[[26.689805328361686,61.417164310440256],[27.03543449872301,60.691343052681745],[27.11079835222879,60.63991839341701],[27.193669269723213,60.64152032258829],[27.294104737971495,60.680273769127204],[27.520629611484978,61.12205799400902],[27.517355723360815,61.14928864095762],[27.106876024185297,61.28343631129974],[26.689805328361686,61.417164310440256]]]}},{"type":"Feature","properties":{"name":"Kouvola Anjala","area":909.1991576952307},"geometry":{"type":"Polygon","coordinates":[[[26.40097205504096,60.903849207350646],[26.794710071791442,60.494365410020556],[27.11079835222879,60.63991839341701],[27.03543449872301,60.691343052681745],[26.484226803828076,61.02972659163719],[26.40097205504096,60.903849207350646]]]}},{"type":"Feature","properties":{"name":"Heinola Asemantaus","area":3020.110035349757},"geometry":{"type":"Polygon","coordinates":[[[25.779953770713337,61.19211054647448],[26.052182994334665,60.67348265902095],[26.073202328501015,60.66197995867065],[26.094716810843643,60.67123193940572],[26.40097205504096,60.903849207350646],[26.484226803828076,61.02972659163719],[26.628592636870668,61.43805828738601],[26.6003532463889,61.50468086643712],[25.870912061748673,61.55311771961686],[25.81723584905703,61.495186996648826],[25.779953770713337,61.19211054647448]]]}},{"type":"Feature","properties":{"name":"Kouvola Utti Lentoportintie","area":928.2560003854527},"geometry":{"type":"Polygon","coordinates":[[[26.484226803828076,61.02972659163719],[27.03543449872301,60.691343052681745],[26.689805328361686,61.417164310440256],[26.628592636870668,61.43805828738601],[26.484226803828076,61.02972659163719]]]}},{"type":"Feature","properties":{"name":"Virolahti Koivuniemi","area":10763.204564285496},"geometry":{"type":"Polygon","coordinates":[[[27.294104737971495,60.680273769127204],[27.521746333679697,60.21832531055981],[27.75,60.36],[27.76,60.41],[27.78,60.42],[27.82,60.51],[27.88,60.53],[27.9,60.58],[28.04939025028888,60.65170732013866],[27.520629611484978,61.12205799400902],[27.294104737971495,60.680273769127204]]]}},{"type":"Feature","properties":{"name":"Lappeenranta lentoasema","area":2578.1005935873623},"geometry":{"type":"Polygon","coordinates":[[[27.517355723360815,61.14928864095762],[27.520629611484978,61.12205799400902],[28.04939025028888,60.65170732013866],[28.15,60.7],[28.19,60.74],[28.23,60.74],[28.31,60.8],[28.34577899060262,60.81610054577118],[28.346488625736036,61.02043316806119],[28.230597779452488,61.272853559789105],[27.651069691045443,61.33986735496187],[27.517355723360815,61.14928864095762]]]}},{"type":"Feature","properties":{"name":"Lappeenranta Konnunsuo","area":12596.472868481109},"geometry":{"type":"Polygon","coordinates":[[[28.34577899060262,60.81610054577118],[28.51,60.89],[28.53,60.92],[28.69,60.92],[28.75,61.02],[28.83,61.06],[28.85,61.09],[28.97,61.11],[29.02,61.15],[29.049557985919858,61.15985266197328],[28.95555697866555,61.367626200058574],[28.346488625736036,61.02043316806119],[28.34577899060262,60.81610054577118]]]}},{"type":"Feature","properties":{"name":"Lappeenranta Hiekkapakka","area":1261.4927786276571},"geometry":{"type":"Polygon","coordinates":[[[28.230597779452488,61.272853559789105],[28.346488625736036,61.02043316806119],[28.95555697866555,61.367626200058574],[28.940988460303046,61.42602558392741],[28.62646371386735,61.61910908794772],[28.620849755011836,61.61971344442589],[28.230597779452488,61.272853559789105]]]}},{"type":"Feature","properties":{"name":"Parikkala Koitsanlahti","area":29510.087466248944},"geometry":{"type":"Polygon","coordinates":[[[28.940988460303046,61.42602558392741],[28.95555697866555,61.367626200058574],[29.049557985919858,61.15985266197328],[29.26,61.23],[29.35,61.32],[29.53,61.43],[29.54,61.45],[29.62,61.46],[29.73,61.52],[29.85,61.63],[29.88,61.63],[30.02129753069998,61.70849862816665],[29.907718002159413,61.83569816239345],[28.963425214589055,61.44966934624232],[28.940988460303046,61.42602558392741]]]}},{"type":"Feature","properties":{"name":"Kaskinen Sälgrund","area":1984.0410127439552},"geometry":{"type":"Polygon","coordinates":[[[20.596293213266843,62.39796735035103],[20.624495684534224,62.35783306431668],[21.70242172941286,62.18464506905282],[21.673950734530816,62.53965116635696],[21.54762773454143,62.63791768791446],[20.930687764445604,62.63180022506255],[20.596293213266843,62.39796735035103]]]}},{"type":"Feature","properties":{"name":"Pori Tahkoluoto satama","area":2829.814327283122},"geometry":{"type":"Polygon","coordinates":[[[20.816024500797532,61.466768753323045],[21.417993743482732,61.375705520551655],[21.516482931762734,61.403423055354736],[21.598450912466685,61.605052063660565],[21.76092578517612,62.04156452780171],[21.724243417420148,62.07939417112355],[20.83103169344488,61.75759656720473],[20.86,61.65],[20.816024500797532,61.466768753323045]]]}},{"type":"Feature","properties":{"name":"Kristiinankaupunki Majakka","area":5457.813703018183},"geometry":{"type":"Polygon","coordinates":[[[20.624495684534224,62.35783306431668],[20.63,62.35],[20.79,61.91],[20.83103169344488,61.75759656720473],[21.724243417420148,62.07939417112355],[21.70242172941286,62.18464506905282],[20.624495684534224,62.35783306431668]]]}},{"type":"Feature","properties":{"name":"Karvia Alkkia","area":2415.643097661174},"geometry":{"type":"Polygon","coordinates":[[[22.45046381877156,62.18778505097908],[23.037965773714955,61.614772481258434],[23.251111887784674,61.844336557799004],[23.14154157322287,62.407159859628344],[22.551240558362675,62.45755198280686],[22.45046381877156,62.18778505097908]]]}},{"type":"Feature","properties":{"name":"Kauhajoki Kuja-Kokko","area":2948.1286312930397},"geometry":{"type":"Polygon","coordinates":[[[21.673950734530816,62.53965116635696],[21.70242172941286,62.18464506905282],[21.724243417420148,62.07939417112355],[21.76092578517612,62.04156452780171],[21.968015114461792,61.95280942554013],[22.45046381877156,62.18778505097908],[22.551240558362675,62.45755198280686],[22.50056037020019,62.58022238609445],[22.09205322963633,62.81775967580417],[21.673950734530816,62.53965116635696]]]}},{"type":"Feature","properties":{"name":"Kankaanpää Niinisalo lentokenttä","area":2599.974471139803},"geometry":{"type":"Polygon","coordinates":[[[21.968015114461792,61.95280942554013],[22.046269333598705,61.80477230942357],[22.16845878138611,61.59324476011279],[22.97184713904105,61.43200470301472],[23.037965773714955,61.614772481258434],[22.45046381877156,62.18778505097908],[21.968015114461792,61.95280942554013]]]}},{"type":"Feature","properties":{"name":"Virrat Äijänneva","area":3372.365113887275},"geometry":{"type":"Polygon","coordinates":[[[23.14154157322287,62.407159859628344],[23.251111887784674,61.844336557799004],[23.397571519426783,61.85727952448684],[23.840977770225187,61.97307539577376],[23.953524830699045,62.14698713422345],[23.652521424744222,62.943508670282846],[23.648194743853598,62.94759325258695],[23.30875549726461,62.73401850694766],[23.14154157322287,62.407159859628344]]]}},{"type":"Feature","properties":{"name":"Tampere Siilinkari","area":1283.7671983049113},"geometry":{"type":"Polygon","coordinates":[[[23.397571519426783,61.85727952448684],[23.661916098022772,61.50367119137872],[24.126830564754385,61.44014361798005],[24.149477541991555,61.472207215432604],[23.840977770225187,61.97307539577376],[23.397571519426783,61.85727952448684]]]}},{"type":"Feature","properties":{"name":"Jämsä Halli lentoasema","area":1232.3783685225992},"geometry":{"type":"Polygon","coordinates":[[[24.539589772015777,62.18421620432008],[24.552411271538922,61.49288362117786],[24.66057946468943,61.42279772089639],[24.727738482257898,61.39825277089204],[24.965113871105263,61.46751675487312],[24.679814123017366,62.18356318144656],[24.539589772015777,62.18421620432008]]]}},{"type":"Feature","properties":{"name":"Juupajoki Hyytiälä","area":2429.31720726912},"geometry":{"type":"Polygon","coordinates":[[[23.840977770225187,61.97307539577376],[24.149477541991555,61.472207215432604],[24.552411271538922,61.49288362117786],[24.539589772015777,62.18421620432008],[24.456225548490895,62.24953467587883],[23.953524830699045,62.14698713422345],[23.840977770225187,61.97307539577376]]]}},{"type":"Feature","properties":{"name":"Jämsä Halli Lentoasemantie","area":1441.0365811730724},"geometry":{"type":"Polygon","coordinates":[[[24.679814123017366,62.18356318144656],[24.965113871105263,61.46751675487312],[25.097670862014034,61.50431464532403],[25.239211966874805,62.13437377279594],[25.2046544065485,62.189361140482575],[24.679814123017366,62.18356318144656]]]}},{"type":"Feature","properties":{"name":"Jyväskylä lentoasema","area":1833.5108376541432},"geometry":{"type":"Polygon","coordinates":[[[25.2046544065485,62.189361140482575],[25.239211966874805,62.13437377279594],[25.59659593503729,62.04899556265549],[25.762560376059664,62.740514066915146],[25.29352865446812,62.869131803531054],[25.2046544065485,62.189361140482575]]]}},{"type":"Feature","properties":{"name":"Luhanka Judinsalo","area":2213.8819223606592},"geometry":{"type":"Polygon","coordinates":[[[25.097670862014034,61.50431464532403],[25.142323726992757,61.4722633076621],[25.81723584905703,61.495186996648826],[25.870912061748673,61.55311771961686],[25.73465722352998,62.01225150595239],[25.59659593503729,62.04899556265549],[25.239211966874805,62.13437377279594],[25.097670862014034,61.50431464532403]]]}},{"type":"Feature","properties":{"name":"Joutsa Savenaho","area":3823.8011196860202},"geometry":{"type":"Polygon","coordinates":[[[25.73465722352998,62.01225150595239],[25.870912061748673,61.55311771961686],[26.6003532463889,61.50468086643712],[26.729130782389582,62.2520319362543],[26.235663084995224,62.40822064526495],[25.73465722352998,62.01225150595239]]]}},{"type":"Feature","properties":{"name":"Mikkeli lentoasema","area":3361.3961369435474},"geometry":{"type":"Polygon","coordinates":[[[26.6003532463889,61.50468086643712],[26.628592636870668,61.43805828738601],[26.689805328361686,61.417164310440256],[27.106876024185297,61.28343631129974],[27.338996944758286,62.24599278927394],[27.24266985051775,62.353273572913366],[27.01756251583331,62.433881129750105],[26.729130782389582,62.2520319362543],[26.6003532463889,61.50468086643712]]]}},{"type":"Feature","properties":{"name":"Juva Partala","area":2008.055972473661},"geometry":{"type":"Polygon","coordinates":[[[27.443034107025042,62.13106508177164],[27.66209646071699,61.40520375385161],[28.24987759204435,61.88134969410146],[28.19719422140642,62.091472158179286],[27.443034107025042,62.13106508177164]]]}},{"type":"Feature","properties":{"name":"Varkaus Kosulanniemi","area":2307.526395166003},"geometry":{"type":"Polygon","coordinates":[[[27.24266985051775,62.353273572913366],[27.338996944758286,62.24599278927394],[27.443034107025042,62.13106508177164],[28.19719422140642,62.091472158179286],[28.383021519509462,62.56346446174105],[27.67032914649971,62.55912889529242],[27.24266985051775,62.353273572913366]]]}},{"type":"Feature","properties":{"name":"Savonlinna lentoasema","area":2306.0165049902666},"geometry":{"type":"Polygon","coordinates":[[[28.62646371386735,61.61910908794772],[28.940988460303046,61.42602558392741],[28.963425214589055,61.44966934624232],[29.2756492276352,62.276419175418205],[29.133125688806807,62.451308390217214],[28.965957923448098,62.61685992839491],[28.945769818189124,62.621594473772795],[28.62646371386735,61.61910908794772]]]}},{"type":"Feature","properties":{"name":"Rantasalmi Rukkasluoto","area":2885.877677458709},"geometry":{"type":"Polygon","coordinates":[[[28.19719422140642,62.091472158179286],[28.24987759204435,61.88134969410146],[28.620849755011836,61.61971344442589],[28.62646371386735,61.61910908794772],[28.945769818189124,62.621594473772795],[28.79560996132843,62.70734819023935],[28.562028095491815,62.724307671738075],[28.383021519509462,62.56346446174105],[28.19719422140642,62.091472158179286]]]}},{"type":"Feature","properties":{"name":"Savonlinna Punkaharju Laukansaari","area":2151.1561997860904},"geometry":{"type":"Polygon","coordinates":[[[28.963425214589055,61.44966934624232],[29.907718002159413,61.83569816239345],[29.83381093701688,62.01155582418947],[29.2756492276352,62.276419175418205],[28.963425214589055,61.44966934624232]]]}},{"type":"Feature","properties":{"name":"Tohmajärvi Kemie","area":24715.855837582534},"geometry":{"type":"Polygon","coordinates":[[[29.83381093701688,62.01155582418947],[29.907718002159413,61.83569816239345],[30.02129753069998,61.70849862816665],[30.06,61.73],[30.1,61.79],[30.18,61.82],[30.26,61.88],[30.34,61.91],[30.35,61.94],[30.46,61.99],[30.63,62.11],[30.67,62.15],[30.67,62.17],[30.74,62.17],[30.872743653001148,62.25296478312572],[30.38226712474655,62.82979339494584],[30.260053476584403,62.795928521995826],[29.962923325601622,62.29355636797748],[29.83381093701688,62.01155582418947]]]}},{"type":"Feature","properties":{"name":"Vaasa lentoasema","area":2110.0593457793857},"geometry":{"type":"Polygon","coordinates":[[[21.546038468938438,62.645237688539396],[21.54762773454143,62.63791768791446],[21.673950734530816,62.53965116635696],[22.09205322963633,62.81775967580417],[22.180781640708926,63.35836237158241],[21.902050964974986,63.6674096245806],[21.546038468938438,62.645237688539396]]]}},{"type":"Feature","properties":{"name":"Mustasaari Valassaaret","area":32307.380365977726},"geometry":{"type":"Polygon","coordinates":[[[20.555400064203294,63.45770003210165],[20.981500624470918,63.15122186959161],[21.334114365824203,63.23319998231047],[21.615080733418594,63.71],[21.5,63.71],[20.93,63.56],[20.68,63.52],[20.555400064203294,63.45770003210165]]]}},{"type":"Feature","properties":{"name":"Korsnäs Bredskäret","area":1542.8575473270741},"geometry":{"type":"Polygon","coordinates":[[[20.930687764445604,62.63180022506255],[21.54762773454143,62.63791768791446],[21.546038468938438,62.645237688539396],[21.334114365824203,63.23319998231047],[20.981500624470918,63.15122186959161],[20.930687764445604,62.63180022506255]]]}},{"type":"Feature","properties":{"name":"Maalahti Strömmingsbådan","area":18695.70940578235},"geometry":{"type":"Polygon","coordinates":[[[20.13,63.14],[20.23,62.96],[20.3,62.86],[20.37,62.72],[20.596293213266843,62.39796735035103],[20.930687764445604,62.63180022506255],[20.981500624470918,63.15122186959161],[20.555400064203294,63.45770003210165],[20.38,63.37],[20.14,63.2],[20.13,63.14]]]}},{"type":"Feature","properties":{"name":"Vaasa Klemettilä","area":1766.1652285239365},"geometry":{"type":"Polygon","coordinates":[[[21.334114365824203,63.23319998231047],[21.546038468938438,62.645237688539396],[21.902050964974986,63.6674096245806],[21.8504780769467,63.73721115384953],[21.66,63.71],[21.615080733418594,63.71],[21.334114365824203,63.23319998231047]]]}},{"type":"Feature","properties":{"name":"Seinäjoki Pelmaa","area":2136.1010661478854},"geometry":{"type":"Polygon","coordinates":[[[22.09205322963633,62.81775967580417],[22.50056037020019,62.58022238609445],[22.783394398976863,62.97688710910121],[22.664747379202247,63.338107879428485],[22.180781640708926,63.35836237158241],[22.09205322963633,62.81775967580417]]]}},{"type":"Feature","properties":{"name":"Kauhava lentokenttä","area":2834.627924329177},"geometry":{"type":"Polygon","coordinates":[[[22.664747379202247,63.338107879428485],[22.783394398976863,62.97688710910121],[23.30875549726461,62.73401850694766],[23.648194743853598,62.94759325258695],[23.658053700793666,63.33037865569541],[22.822345982024423,63.468165245532404],[22.664747379202247,63.338107879428485]]]}},{"type":"Feature","properties":{"name":"Ähtäri Inha","area":2463.0452950260023},"geometry":{"type":"Polygon","coordinates":[[[23.652521424744222,62.943508670282846],[23.953524830699045,62.14698713422345],[24.456225548490895,62.24953467587883],[24.489977409338376,62.75787575418506],[23.652521424744222,62.943508670282846]]]}},{"type":"Feature","properties":{"name":"Halsua Purola","area":2600.1262309612143},"geometry":{"type":"Polygon","coordinates":[[[24.033473618307532,63.43135575583123],[24.790645767146763,63.042048772558246],[25.128101688513354,63.173184605474255],[25.150760663268656,63.26137870518503],[25.09308841753051,63.512038876489534],[24.5056538120803,63.7845137122533],[24.033473618307532,63.43135575583123]]]}},{"type":"Feature","properties":{"name":"Alajärvi Möksy","area":2728.095036418291},"geometry":{"type":"Polygon","coordinates":[[[23.648194743853598,62.94759325258695],[23.652521424744222,62.943508670282846],[24.489977409338376,62.75787575418506],[24.790645767146763,63.042048772558246],[24.033473618307532,63.43135575583123],[23.689516084951997,63.38551197235224],[23.658053700793666,63.33037865569541],[23.648194743853598,62.94759325258695]]]}},{"type":"Feature","properties":{"name":"Multia Karhila","area":3648.359601337769},"geometry":{"type":"Polygon","coordinates":[[[24.456225548490895,62.24953467587883],[24.539589772015777,62.18421620432008],[24.679814123017366,62.18356318144656],[25.2046544065485,62.189361140482575],[25.29352865446812,62.869131803531054],[25.128101688513354,63.173184605474255],[24.790645767146763,63.042048772558246],[24.489977409338376,62.75787575418506],[24.456225548490895,62.24953467587883]]]}},{"type":"Feature","properties":{"name":"Viitasaari Haapaniemi","area":3373.8879342979963},"geometry":{"type":"Polygon","coordinates":[[[25.128101688513354,63.173184605474255],[25.29352865446812,62.869131803531054],[25.762560376059664,62.740514066915146],[26.047592695628985,62.67017964349508],[26.290773685027826,63.52803403670813],[25.150760663268656,63.26137870518503],[25.128101688513354,63.173184605474255]]]}},{"type":"Feature","properties":{"name":"Vesanto kirkonkylä","area":5007.984760835721},"geometry":{"type":"Polygon","coordinates":[[[26.047592695628985,62.67017964349508],[26.235663084995224,62.40822064526495],[26.729130782389582,62.2520319362543],[27.01756251583331,62.433881129750105],[27.01762775324606,62.436579507211675],[26.770713829931772,63.42631834523131],[26.470231871549505,63.68652005501461],[26.290773685027826,63.52803403670813],[26.047592695628985,62.67017964349508]]]}},{"type":"Feature","properties":{"name":"Siilinjärvi Kuopio lentoasema","area":1678.5801873121623},"geometry":{"type":"Polygon","coordinates":[[[27.588105217993718,63.164576699240676],[27.773483281707197,62.85836842207329],[28.273705604255667,63.10103266456071],[28.11809326156998,63.450873509463264],[27.70755465420237,63.554376342492574],[27.70094678633692,63.54976790212245],[27.588105217993718,63.164576699240676]]]}},{"type":"Feature","properties":{"name":"Kuopio Maaninka","area":3051.2458244889053},"geometry":{"type":"Polygon","coordinates":[[[26.770713829931772,63.42631834523131],[27.01762775324606,62.436579507211675],[27.588105217993718,63.164576699240676],[27.70094678633692,63.54976790212245],[26.770713829931772,63.42631834523131]]]}},{"type":"Feature","properties":{"name":"Kuopio Ritoniemi","area":1758.3811808500536},"geometry":{"type":"Polygon","coordinates":[[[27.67032914649971,62.55912889529242],[28.383021519509462,62.56346446174105],[28.562028095491815,62.724307671738075],[28.273705604255667,63.10103266456071],[27.773483281707197,62.85836842207329],[27.67032914649971,62.55912889529242]]]}},{"type":"Feature","properties":{"name":"Kuopio Savilahti","area":1625.236364251314},"geometry":{"type":"Polygon","coordinates":[[[27.01756251583331,62.433881129750105],[27.24266985051775,62.353273572913366],[27.67032914649971,62.55912889529242],[27.773483281707197,62.85836842207329],[27.588105217993718,63.164576699240676],[27.01762775324606,62.436579507211675],[27.01756251583331,62.433881129750105]]]}},{"type":"Feature","properties":{"name":"Rautavaara Ylä-Luosta","area":2913.316544381345},"geometry":{"type":"Polygon","coordinates":[[[28.11809326156998,63.450873509463264],[28.273705604255667,63.10103266456071],[28.562028095491815,62.724307671738075],[28.79560996132843,62.70734819023935],[28.970047206352536,63.392538167588334],[28.421262177724408,63.71055040188636],[28.35425363910113,63.680852118230334],[28.11809326156998,63.450873509463264]]]}},{"type":"Feature","properties":{"name":"Liperi Joensuu lentoasema","area":1616.0542349563673},"geometry":{"type":"Polygon","coordinates":[[[28.965957923448098,62.61685992839491],[29.133125688806807,62.451308390217214],[29.667382243566284,62.60589316944724],[29.883555198806683,62.96271963019122],[29.659055591623403,63.10121283041255],[28.965957923448098,62.61685992839491]]]}},{"type":"Feature","properties":{"name":"Juuka Niemelä","area":3403.4552516859835},"geometry":{"type":"Polygon","coordinates":[[[28.79560996132843,62.70734819023935],[28.945769818189124,62.621594473772795],[28.965957923448098,62.61685992839491],[29.659055591623403,63.10121283041255],[29.574203946826387,63.87762642106482],[29.531623914668366,63.91507022685035],[28.970047206352536,63.392538167588334],[28.79560996132843,62.70734819023935]]]}},{"type":"Feature","properties":{"name":"Liperi Tuiskavanluoto","area":1512.4677155659613},"geometry":{"type":"Polygon","coordinates":[[[29.133125688806807,62.451308390217214],[29.2756492276352,62.276419175418205],[29.83381093701688,62.01155582418947],[29.962923325601622,62.29355636797748],[29.667382243566284,62.60589316944724],[29.133125688806807,62.451308390217214]]]}},{"type":"Feature","properties":{"name":"Joensuu Linnunlahti","area":1170.0126595822708},"geometry":{"type":"Polygon","coordinates":[[[29.667382243566284,62.60589316944724],[29.962923325601622,62.29355636797748],[30.260053476584403,62.795928521995826],[29.883555198806683,62.96271963019122],[29.667382243566284,62.60589316944724]]]}},{"type":"Feature","properties":{"name":"Lieksa Lampela","area":4648.141115707244},"geometry":{"type":"Polygon","coordinates":[[[29.574203946826387,63.87762642106482],[29.659055591623403,63.10121283041255],[29.883555198806683,62.96271963019122],[30.260053476584403,62.795928521995826],[30.38226712474655,62.82979339494584],[30.512375330900504,63.04887074623893],[30.59027848991575,63.48252674388728],[30.5,63.5],[30.41,63.58],[30.28,63.62],[30.27,63.64],[30.08,63.74],[30.28,63.78],[30.28502940270334,63.78670587027112],[29.574203946826387,63.87762642106482]]]}},{"type":"Feature","properties":{"name":"Ilomantsi Pötsönvaara","area":23765.816365385872},"geometry":{"type":"Polygon","coordinates":[[[30.512375330900504,63.04887074623893],[31.580481939797966,62.84838555183837],[31.62,62.88],[31.62,62.94],[31.49,63.06],[31.41,63.08],[31.4,63.1],[31.31,63.13],[31.27,63.25],[31.18,63.28],[31.17,63.3],[31,63.34],[30.94,63.4],[30.88,63.4],[30.81,63.44],[30.59027848991575,63.48252674388728],[30.512375330900504,63.04887074623893]]]}},{"type":"Feature","properties":{"name":"Ilomantsi Mekrijärvi","area":23795.045521820783},"geometry":{"type":"Polygon","coordinates":[[[30.38226712474655,62.82979339494584],[30.872743653001148,62.25296478312572],[30.9,62.27],[30.96,62.27],[30.99,62.29],[31,62.32],[31.1,62.37],[31.11,62.39],[31.19,62.41],[31.2,62.45],[31.24,62.46],[31.34,62.58],[31.41,62.63],[31.43,62.7],[31.46,62.74],[31.49,62.75],[31.52,62.8],[31.580481939797966,62.84838555183837],[30.512375330900504,63.04887074623893],[30.38226712474655,62.82979339494584]]]}},{"type":"Feature","properties":{"name":"Pietarsaari Kallan","area":7979.250074585896},"geometry":{"type":"Polygon","coordinates":[[[21.8504780769467,63.73721115384953],[21.902050964974986,63.6674096245806],[22.180781640708926,63.35836237158241],[22.664747379202247,63.338107879428485],[22.822345982024423,63.468165245532404],[22.828364481533153,63.61826986345258],[22.498475517426105,64.15109753181876],[22.4,64.12],[22.25,64.04],[22.17,63.97],[22.12,63.9],[21.87,63.74],[21.8504780769467,63.73721115384953]]]}},{"type":"Feature","properties":{"name":"Kokkola Tankar","area":7264.207242242038},"geometry":{"type":"Polygon","coordinates":[[[22.498475517426105,64.15109753181876],[22.828364481533153,63.61826986345258],[22.876087626778197,63.68163865269065],[23.107818108907313,64.20109289762004],[22.973175963081058,64.41423461744141],[22.97,64.41],[22.93,64.25],[22.59,64.18],[22.498475517426105,64.15109753181876]]]}},{"type":"Feature","properties":{"name":"Kruunupyy Kokkola-Pietarsaari lentoasema","area":1933.0280925359407},"geometry":{"type":"Polygon","coordinates":[[[22.822345982024423,63.468165245532404],[23.658053700793666,63.33037865569541],[23.689516084951997,63.38551197235224],[23.646087194898655,63.852718486954345],[23.484898065250658,63.93347045782703],[22.876087626778197,63.68163865269065],[22.828364481533153,63.61826986345258],[22.822345982024423,63.468165245532404]]]}},{"type":"Feature","properties":{"name":"Kalajoki Ulkokalla","area":6093.529184356199},"geometry":{"type":"Polygon","coordinates":[[[22.973175963081058,64.41423461744141],[23.107818108907313,64.20109289762004],[23.484898065250658,63.93347045782703],[23.646087194898655,63.852718486954345],[23.86509622289049,64.16096488017975],[23.56984108119893,64.6342030359449],[23.08,64.5],[23,64.45],[22.973175963081058,64.41423461744141]]]}},{"type":"Feature","properties":{"name":"Kokkola Santahaka","area":699.6165146366609},"geometry":{"type":"Polygon","coordinates":[[[22.876087626778197,63.68163865269065],[23.484898065250658,63.93347045782703],[23.107818108907313,64.20109289762004],[22.876087626778197,63.68163865269065]]]}},{"type":"Feature","properties":{"name":"Toholampi Laitala","area":2791.088065518729},"geometry":{"type":"Polygon","coordinates":[[[23.646087194898655,63.852718486954345],[23.689516084951997,63.38551197235224],[24.033473618307532,63.43135575583123],[24.5056538120803,63.7845137122533],[24.3228811059587,64.2327043824663],[24.19087696944142,64.27079764777841],[23.86509622289049,64.16096488017975],[23.646087194898655,63.852718486954345]]]}},{"type":"Feature","properties":{"name":"Ylivieska lentokenttä","area":2584.102112987228},"geometry":{"type":"Polygon","coordinates":[[[24.3228811059587,64.2327043824663],[24.5056538120803,63.7845137122533],[25.09308841753051,63.512038876489534],[25.134271178787138,63.640545072198236],[25.04902419216077,64.28554736964519],[24.75397345414048,64.45520433663752],[24.3228811059587,64.2327043824663]]]}},{"type":"Feature","properties":{"name":"Haapavesi Mustikkamäki","area":2624.2165769611534},"geometry":{"type":"Polygon","coordinates":[[[25.04902419216077,64.28554736964519],[25.134271178787138,63.640545072198236],[25.96193585088819,64.2151528071343],[25.850463322125243,64.5259841099202],[25.5682437277484,64.5586853993438],[25.475792400238443,64.54886740437918],[25.04902419216077,64.28554736964519]]]}},{"type":"Feature","properties":{"name":"Pyhäjärvi Ojakylä","area":3867.809088409844},"geometry":{"type":"Polygon","coordinates":[[[25.09308841753051,63.512038876489534],[25.150760663268656,63.26137870518503],[26.290773685027826,63.52803403670813],[26.470231871549505,63.68652005501461],[26.46638980339025,63.74194594029307],[25.96193585088819,64.2151528071343],[25.134271178787138,63.640545072198236],[25.09308841753051,63.512038876489534]]]}},{"type":"Feature","properties":{"name":"Kajaani lentoasema","area":2192.933769823424},"geometry":{"type":"Polygon","coordinates":[[[27.058767619412126,64.45647802754809],[27.50686947757861,63.999728411802046],[27.880643176725606,64.45648756018495],[27.429664508247885,64.91283981313303],[27.10238809442546,64.70543449352516],[27.058767619412126,64.45647802754809]]]}},{"type":"Feature","properties":{"name":"Vieremä Kaarakkala","area":4042.968231830425},"geometry":{"type":"Polygon","coordinates":[[[26.46638980339025,63.74194594029307],[26.470231871549505,63.68652005501461],[26.770713829931772,63.42631834523131],[27.70094678633692,63.54976790212245],[27.70755465420237,63.554376342492574],[27.667038543491167,63.77331937223805],[27.50686947757861,63.999728411802046],[27.058767619412126,64.45647802754809],[26.46638980339025,63.74194594029307]]]}},{"type":"Feature","properties":{"name":"Nurmes Valtimo","area":3215.438116552583},"geometry":{"type":"Polygon","coordinates":[[[28.421262177724408,63.71055040188636],[28.970047206352536,63.392538167588334],[29.531623914668366,63.91507022685035],[29.334340376909527,64.3349574327417],[28.962695813626755,64.31068490716791],[28.421262177724408,63.71055040188636]]]}},{"type":"Feature","properties":{"name":"Sotkamo Kuolaniemi","area":2118.647967498119},"geometry":{"type":"Polygon","coordinates":[[[28.08250987135616,64.33015990147587],[28.35425363910113,63.680852118230334],[28.421262177724408,63.71055040188636],[28.962695813626755,64.31068490716791],[28.500702220759983,64.54207079594956],[28.08250987135616,64.33015990147587]]]}},{"type":"Feature","properties":{"name":"Kuhmo Kalliojoki","area":27165.859066697903},"geometry":{"type":"Polygon","coordinates":[[[29.334340376909527,64.3349574327417],[29.531623914668366,63.91507022685035],[29.574203946826387,63.87762642106482],[30.28502940270334,63.78670587027112],[30.37,63.9],[30.47,63.95],[30.56,64.02],[30.59,64.08],[30.59,64.16],[30.54,64.19],[30.55,64.24],[30.5,64.3],[30.41,64.31],[30.38,64.34],[30.3,64.37],[30.13,64.4],[30.09,64.42],[30.1,64.46],[30.06,64.53],[30.03,64.55],[30.07,64.58],[30.14,64.59],[30.18,64.64],[30.17,64.68],[30.1,64.73],[30.12,64.73],[30.13,64.75],[30.11,64.81],[30.06,64.83],[29.75,64.83],[29.73,64.87],[29.67,64.9],[29.65,64.93],[29.66,65.03],[29.72,65.05],[29.84,65.05],[29.92,65.07],[29.94,65.09],[29.94,65.12],[29.9,65.15],[29.93,65.17],[29.93,65.21],[29.91,65.24],[29.88028947011931,65.24636654211729],[29.693745342222407,65.14257360848524],[29.334340376909527,64.3349574327417]]]}},{"type":"Feature","properties":{"name":"Raahe Nahkiainen","area":2700.6329551653234},"geometry":{"type":"Polygon","coordinates":[[[23.56984108119893,64.6342030359449],[23.86509622289049,64.16096488017975],[24.19087696944142,64.27079764777841],[24.11700408393826,64.9673543824406],[23.9879498393318,65.00055501792748],[23.85,64.79],[23.81,64.7],[23.56984108119893,64.6342030359449]]]}},{"type":"Feature","properties":{"name":"Hailuoto Keskikylä","area":1291.062770137599},"geometry":{"type":"Polygon","coordinates":[[[24.616444076078206,64.79820911650472],[24.747963574679332,64.67901329753113],[25.034909062577135,64.98832695006413],[25.06414224117805,65.19956982218005],[25.069796101605988,65.48254766211016],[24.999590965982087,65.46934150489653],[24.685097697072425,65.36713155342873],[24.616444076078206,64.79820911650472]]]}},{"type":"Feature","properties":{"name":"Kemi I majakka","area":5271.74131175851},"geometry":{"type":"Polygon","coordinates":[[[23.9879498393318,65.00055501792748],[24.11700408393826,64.9673543824406],[24.160644209441934,64.98624210594278],[24.42943571639827,65.34856929005124],[24.260180560268573,65.59502618192201],[24.117421072660804,65.61911848614761],[24.09,65.53],[24.11,65.29],[24.04,65.08],[23.9879498393318,65.00055501792748]]]}},{"type":"Feature","properties":{"name":"Hailuoto Marjaniemi","area":936.9194380686599},"geometry":{"type":"Polygon","coordinates":[[[24.160644209441934,64.98624210594278],[24.616444076078206,64.79820911650472],[24.685097697072425,65.36713155342873],[24.42943571639827,65.34856929005124],[24.160644209441934,64.98624210594278]]]}},{"type":"Feature","properties":{"name":"Raahe Lapaluoto satama","area":1711.5934191578021},"geometry":{"type":"Polygon","coordinates":[[[24.11700408393826,64.9673543824406],[24.19087696944142,64.27079764777841],[24.3228811059587,64.2327043824663],[24.75397345414048,64.45520433663752],[24.747963574679332,64.67901329753113],[24.616444076078206,64.79820911650472],[24.160644209441934,64.98624210594278],[24.11700408393826,64.9673543824406]]]}},{"type":"Feature","properties":{"name":"Oulu lentoasema","area":710.2639624985114},"geometry":{"type":"Polygon","coordinates":[[[25.034909062577135,64.98832695006413],[25.475792400238443,64.54886740437918],[25.5682437277484,64.5586853993438],[25.450785249013396,64.90663381750528],[25.06414224117805,65.19956982218005],[25.034909062577135,64.98832695006413]]]}},{"type":"Feature","properties":{"name":"Siikajoki Ruukki","area":1522.2535383651662},"geometry":{"type":"Polygon","coordinates":[[[24.747963574679332,64.67901329753113],[24.75397345414048,64.45520433663752],[25.04902419216077,64.28554736964519],[25.475792400238443,64.54886740437918],[25.034909062577135,64.98832695006413],[24.747963574679332,64.67901329753113]]]}},{"type":"Feature","properties":{"name":"Oulu Vihreäsaari satama","area":1195.491654371982},"geometry":{"type":"Polygon","coordinates":[[[25.06414224117805,65.19956982218005],[25.450785249013396,64.90663381750528],[25.508652635370513,65.69124749722896],[25.149578363479794,65.56512154411415],[25.069796101605988,65.48254766211016],[25.06414224117805,65.19956982218005]]]}},{"type":"Feature","properties":{"name":"Vaala Pelso","area":5640.586157651099},"geometry":{"type":"Polygon","coordinates":[[[25.850463322125243,64.5259841099202],[25.96193585088819,64.2151528071343],[26.46638980339025,63.74194594029307],[27.058767619412126,64.45647802754809],[27.10238809442546,64.70543449352516],[26.235060185001405,65.22586019193056],[25.850463322125243,64.5259841099202]]]}},{"type":"Feature","properties":{"name":"Pudasjärvi lentokenttä","area":6013.496399399456},"geometry":{"type":"Polygon","coordinates":[[[26.23099636274578,65.24037846371874],[26.235060185001405,65.22586019193056],[27.10238809442546,64.70543449352516],[27.429664508247885,64.91283981313303],[27.629156778624463,65.20916801932292],[27.520473475786872,65.98941773362847],[27.02785609393151,66.06279990508287],[26.23099636274578,65.24037846371874]]]}},{"type":"Feature","properties":{"name":"Suomussalmi Pesiö","area":5836.67749275071},"geometry":{"type":"Polygon","coordinates":[[[28.28730611045205,65.09287910042222],[28.500702220759983,64.54207079594956],[28.962695813626755,64.31068490716791],[29.334340376909527,64.3349574327417],[29.693745342222407,65.14257360848524],[28.82554298043247,65.53529970577901],[28.28730611045205,65.09287910042222]]]}},{"type":"Feature","properties":{"name":"Puolanka Paljakka","area":3023.265973537827},"geometry":{"type":"Polygon","coordinates":[[[27.429664508247885,64.91283981313303],[27.880643176725606,64.45648756018495],[28.06609841368022,64.33008567707388],[28.08250987135616,64.33015990147587],[28.500702220759983,64.54207079594956],[28.28730611045205,65.09287910042222],[27.629156778624463,65.20916801932292],[27.429664508247885,64.91283981313303]]]}},{"type":"Feature","properties":{"name":"Kemi Kemi-Tornio lentoasema","area":1268.5542000252733},"geometry":{"type":"Polygon","coordinates":[[[24.379829369744982,65.8296518978921],[24.999590965982087,65.46934150489653],[25.069796101605988,65.48254766211016],[25.149578363479794,65.56512154411415],[24.618799667625503,66.15924437953905],[24.428896046170564,66.17639030968932],[24.379829369744982,65.8296518978921]]]}},{"type":"Feature","properties":{"name":"Kemi Ajos","area":945.0292170801604},"geometry":{"type":"Polygon","coordinates":[[[24.260180560268573,65.59502618192201],[24.42943571639827,65.34856929005124],[24.685097697072425,65.36713155342873],[24.999590965982087,65.46934150489653],[24.379829369744982,65.8296518978921],[24.260180560268573,65.59502618192201]]]}},{"type":"Feature","properties":{"name":"Tornio Kaakkuri","area":4018.2931841447153},"geometry":{"type":"Polygon","coordinates":[[[23.661301789833914,66.21739642033216],[23.68,66.18],[23.72,66.15],[23.88,66.13],[23.88,66.11],[23.9,66.1],[23.9,66.06],[24,65.99],[24.01,65.93],[24.08,65.89],[24.1,65.83],[24.09,65.76],[24.13,65.71],[24.13,65.66],[24.117421072660804,65.61911848614761],[24.260180560268573,65.59502618192201],[24.379829369744982,65.8296518978921],[24.428896046170564,66.17639030968932],[24.195733899719443,66.33904909553719],[23.661301789833914,66.21739642033216]]]}},{"type":"Feature","properties":{"name":"Ranua lentokenttä","area":4517.101207647996},"geometry":{"type":"Polygon","coordinates":[[[25.6473034001772,65.74364335648994],[26.23099636274578,65.24037846371874],[27.02785609393151,66.06279990508287],[26.5999397293803,66.52148911184169],[25.966498550607387,66.14640131469791],[25.964475464763755,66.14457099917954],[25.6473034001772,65.74364335648994]]]}},{"type":"Feature","properties":{"name":"Taivalkoski kirkonkylä","area":5933.193191033621},"geometry":{"type":"Polygon","coordinates":[[[27.520473475786872,65.98941773362847],[27.629156778624463,65.20916801932292],[28.28730611045205,65.09287910042222],[28.82554298043247,65.53529970577901],[28.71790861395431,65.79496230971264],[28.699617105292504,65.83851210069757],[28.47239402471225,66.18838484698493],[27.948730840443666,66.38686243387103],[27.520473475786872,65.98941773362847]]]}},{"type":"Feature","properties":{"name":"Kuusamo lentoasema","area":4469.782329980818},"geometry":{"type":"Polygon","coordinates":[[[28.71790861395431,65.79496230971264],[28.82554298043247,65.53529970577901],[29.693745342222407,65.14257360848524],[29.88028947011931,65.24636654211729],[29.77,65.27],[29.69,65.27],[29.77,65.31],[29.79,65.34],[29.77,65.39],[29.77,65.45],[29.81,65.49],[29.9,65.54],[29.9,65.58],[29.83,65.62],[29.98,65.65],[30.13,65.63],[30.17,65.64],[30.18,65.67],[30.17224623631961,65.70359964261503],[29.45067111912196,66.08437271091388],[28.71790861395431,65.79496230971264]]]}},{"type":"Feature","properties":{"name":"Kuusamo Kiutaköngäs","area":1021.1540568692174},"geometry":{"type":"Polygon","coordinates":[[[28.945552901781877,66.51715324068462],[29.190942410485892,66.30017543123427],[29.287405334470446,66.22441051213116],[29.49217186727724,66.5859642915983],[29.29,66.74],[29.244393015063444,66.76606113424945],[29.10716910247169,66.74281376460519],[28.945552901781877,66.51715324068462]]]}},{"type":"Feature","properties":{"name":"Kuusamo Rukatunturi","area":137.75855309995646},"geometry":{"type":"Polygon","coordinates":[[[29.099252723898843,66.0430748631669],[29.335816480454913,66.14654687046796],[29.287405334470446,66.22441051213116],[29.190942410485892,66.30017543123427],[29.099252723898843,66.0430748631669]]]}},{"type":"Feature","properties":{"name":"Kuusamo Juuma","area":13710.073293470095},"geometry":{"type":"Polygon","coordinates":[[[29.287405334470446,66.22441051213116],[29.335816480454913,66.14654687046796],[29.45067111912196,66.08437271091388],[30.17224623631961,65.70359964261503],[30.15,65.8],[30.11,65.91],[30.06,65.97],[30.06,65.99],[30.03,66.01],[30.03,66.04],[29.96,66.15],[29.73,66.3],[29.5,66.58],[29.49217186727724,66.5859642915983],[29.287405334470446,66.22441051213116]]]}},{"type":"Feature","properties":{"name":"Ylitornio Meltosjärvi","area":3180.8658916895847},"geometry":{"type":"Polygon","coordinates":[[[24.195733899719443,66.33904909553719],[24.428896046170564,66.17639030968932],[24.618799667625503,66.15924437953905],[25.183834250411593,66.67124686012696],[25.193524621539403,67.00022253636338],[24.72095720174838,67.11618341297601],[24.48583289762068,67.15781613076307],[24.195733899719443,66.33904909553719]]]}},{"type":"Feature","properties":{"name":"Pello kirkonkylä","area":15154.10024794242},"geometry":{"type":"Polygon","coordinates":[[[23.51,67.16],[23.56,67.11],[23.62,67.08],[23.66,67.02],[23.68,67.02],[23.75,66.96],[23.79,66.95],[23.85,66.88],[23.92,66.84],[23.84,66.78],[23.84,66.74],[23.86,66.71],[23.83,66.68],[23.84,66.6],[23.76,66.57],[23.75,66.55],[23.7,66.54],[23.68,66.51],[23.64,66.5],[23.61,66.47],[23.6,66.42],[23.63,66.38],[23.61,66.28],[23.63,66.27],[23.63,66.24],[23.66,66.22],[23.661301789833914,66.21739642033216],[24.195733899719443,66.33904909553719],[24.48583289762068,67.15781613076307],[24.30499261601925,67.33343135035936],[24.248590372698484,67.34643457004675],[23.947090000022122,67.38474935293347],[23.707888923314975,67.33281476891337],[23.71,67.33],[23.665923347844572,67.32370333540636],[23.544819145000982,67.29740957250048],[23.53,67.29],[23.51,67.25],[23.51,67.16]]]}},{"type":"Feature","properties":{"name":"Rovaniemi lentoasema","area":200.64885021094676},"geometry":{"type":"Polygon","coordinates":[[[25.669459413554886,66.74040760229246],[25.964475464763755,66.14457099917954],[25.966498550607387,66.14640131469791],[25.93375874466896,66.47763307501187],[25.669459413554886,66.74040760229246]]]}},{"type":"Feature","properties":{"name":"Rovaniemi rautatieasema","area":2743.0992749705656},"geometry":{"type":"Polygon","coordinates":[[[25.183834250411593,66.67124686012696],[25.62782601307142,65.74606228485588],[25.6473034001772,65.74364335648994],[25.964475464763755,66.14457099917954],[25.669459413554886,66.74040760229246],[25.44261835084599,67.16605456144312],[25.193524621539403,67.00022253636338],[25.183834250411593,66.67124686012696]]]}},{"type":"Feature","properties":{"name":"Sodankylä Tähtelä","area":4171.462209288342},"geometry":{"type":"Polygon","coordinates":[[[25.829811060920886,67.37175731180095],[25.89982474577287,67.30292012002205],[26.56964622909931,66.77700316960401],[26.779467270654795,66.94782296329208],[27.132266190498203,67.55089296650316],[26.47979220445559,68.05644005640086],[25.829811060920886,67.37175731180095]]]}},{"type":"Feature","properties":{"name":"Rovaniemi Apukka","area":2270.2550058542483},"geometry":{"type":"Polygon","coordinates":[[[25.89982474577287,67.30292012002205],[25.93375874466896,66.47763307501187],[25.966498550607387,66.14640131469791],[26.5999397293803,66.52148911184169],[26.56964622909931,66.77700316960401],[25.89982474577287,67.30292012002205]]]}},{"type":"Feature","properties":{"name":"Kemijärvi lentokenttä","area":4454.665147094997},"geometry":{"type":"Polygon","coordinates":[[[26.56964622909931,66.77700316960401],[26.5999397293803,66.52148911184169],[27.02785609393151,66.06279990508287],[27.520473475786872,65.98941773362847],[27.948730840443666,66.38686243387103],[27.940524673523722,66.51106192554745],[27.80809851448265,66.74901357550998],[26.779467270654795,66.94782296329208],[26.56964622909931,66.77700316960401]]]}},{"type":"Feature","properties":{"name":"Savukoski kirkonkylä","area":3727.96573227131},"geometry":{"type":"Polygon","coordinates":[[[27.656533408928624,67.30657924421976],[27.80809851448265,66.74901357550998],[27.940524673523722,66.51106192554745],[28.691296052845892,67.3315882664144],[28.710686305297653,67.49208557887881],[28.545934675016053,67.8422582600155],[28.351286638815573,67.86473246300122],[27.656533408928624,67.30657924421976]]]}},{"type":"Feature","properties":{"name":"Pelkosenniemi Pyhätunturi","area":2361.9725703282984},"geometry":{"type":"Polygon","coordinates":[[[26.779467270654795,66.94782296329208],[27.80809851448265,66.74901357550998],[27.656533408928624,67.30657924421976],[27.279375651874425,67.55549883549185],[27.132266190498203,67.55089296650316],[26.779467270654795,66.94782296329208]]]}},{"type":"Feature","properties":{"name":"Salla kirkonkylä","area":3415.649447643247},"geometry":{"type":"Polygon","coordinates":[[[27.940524673523722,66.51106192554745],[27.948730840443666,66.38686243387103],[28.47239402471225,66.18838484698493],[28.945552901781877,66.51715324068462],[29.10716910247169,66.74281376460519],[28.691296052845892,67.3315882664144],[27.940524673523722,66.51106192554745]]]}},{"type":"Feature","properties":{"name":"Salla Naruska","area":2955.6876436021857},"geometry":{"type":"Polygon","coordinates":[[[28.691296052845892,67.3315882664144],[29.10716910247169,66.74281376460519],[29.244393015063444,66.76606113424945],[29.15,66.82],[29.09,66.88],[29.07,66.93],[29.1,66.97],[29.29,67.08],[29.54,67.25],[29.55,67.27],[29.621137784020416,67.2877844460051],[29.395877869627668,67.4543934896597],[28.710686305297653,67.49208557887881],[28.691296052845892,67.3315882664144]]]}},{"type":"Feature","properties":{"name":"Enontekiö lentoasema","area":9596.750406963833},"geometry":{"type":"Polygon","coordinates":[[[22.06992390506629,68.44],[22.3,68.44],[22.32,68.41],[22.35,68.4],[22.41,68.43],[22.45,68.4],[22.53,68.4],[22.56,68.38],[22.62,68.39],[22.74,68.34],[22.8,68.35],[22.81,68.33],[22.89,68.31],[22.91,68.29],[23.03,68.27],[23.05,68.23],[23.1,68.22],[23.1,68.14],[23.15,68.09],[23.29,68.11],[23.34,68.03],[23.363180822535078,68.01609150647896],[23.769765795893615,68.29189461532808],[23.779485365827522,68.31161633111707],[23.188899993839563,68.6743615370399],[23.17,68.67],[23.06,68.73],[22.77,68.73],[22.55,68.78],[22.4,68.76],[22.38,68.85],[22.22,68.95],[22.21005087875503,68.96989824248993],[22.06992390506629,68.44]]]}},{"type":"Feature","properties":{"name":"Muonio Laukukero","area":1049.5599253910661},"geometry":{"type":"Polygon","coordinates":[[[23.769765795893615,68.29189461532808],[23.91706403730771,67.87351928570997],[24.138925866366062,68.07724770042368],[24.204096072850994,68.25288230401266],[24.354643880723387,68.74802848954212],[24.33,68.75],[24.304674863383372,68.75633128415416],[23.779485365827522,68.31161633111707],[23.769765795893615,68.29189461532808]]]}},{"type":"Feature","properties":{"name":"Muonio Sammaltunturi","area":813.5154262036696},"geometry":{"type":"Polygon","coordinates":[[[23.91706403730771,67.87351928570997],[23.947090000022122,67.38474935293347],[24.248590372698484,67.34643457004675],[24.190682220663454,67.87612995642935],[24.138925866366062,68.07724770042368],[23.91706403730771,67.87351928570997]]]}},{"type":"Feature","properties":{"name":"Kittilä Matorova","area":2098.8186753279238},"geometry":{"type":"Polygon","coordinates":[[[24.204096072850994,68.25288230401266],[24.225566018740444,67.99000428654199],[24.669774084538822,68.0892978541909],[24.91342670880616,68.57554401839793],[24.882989623292854,68.6259792465857],[24.87,68.6],[24.81,68.67],[24.58,68.73],[24.354643880723387,68.74802848954212],[24.204096072850994,68.25288230401266]]]}},{"type":"Feature","properties":{"name":"Kittilä lentoasema","area":2368.7624124211643},"geometry":{"type":"Polygon","coordinates":[[[24.30499261601925,67.33343135035936],[24.48583289762068,67.15781613076307],[24.72095720174838,67.11618341297601],[25.098474197074697,68.35926410748024],[25.031186568396404,68.48988598962856],[24.91342670880616,68.57554401839793],[24.669774084538822,68.0892978541909],[24.30499261601925,67.33343135035936]]]}},{"type":"Feature","properties":{"name":"Kittilä Kenttärova","area":846.9056509363246},"geometry":{"type":"Polygon","coordinates":[[[24.190682220663454,67.87612995642935],[24.248590372698484,67.34643457004675],[24.30499261601925,67.33343135035936],[24.669774084538822,68.0892978541909],[24.225566018740444,67.99000428654199],[24.190682220663454,67.87612995642935]]]}},{"type":"Feature","properties":{"name":"Kittilä Pakatti","area":3142.846854522881},"geometry":{"type":"Polygon","coordinates":[[[24.72095720174838,67.11618341297601],[25.193524621539403,67.00022253636338],[25.44261835084599,67.16605456144312],[25.68071598314754,67.3656584982116],[25.098474197074697,68.35926410748024],[24.72095720174838,67.11618341297601]]]}},{"type":"Feature","properties":{"name":"Kittilä Pokka","area":5163.8242033271645},"geometry":{"type":"Polygon","coordinates":[[[25.031186568396404,68.48988598962856],[25.098474197074697,68.35926410748024],[25.68071598314754,67.3656584982116],[25.829811060920886,67.37175731180095],[26.47979220445559,68.05644005640086],[26.511938141618987,68.58418079902312],[25.031186568396404,68.48988598962856]]]}},{"type":"Feature","properties":{"name":"Sodankylä Lokka","area":2592.5951584890954},"geometry":{"type":"Polygon","coordinates":[[[27.279375651874425,67.55549883549185],[27.656533408928624,67.30657924421976],[28.351286638815573,67.86473246300122],[28.105848537655078,68.08017333028442],[27.88281318288719,68.26880539749905],[27.602958958045804,68.13136376634124],[27.529933841500963,68.09042984235349],[27.279375651874425,67.55549883549185]]]}},{"type":"Feature","properties":{"name":"Sodankylä Vuotso","area":3122.687927969871},"geometry":{"type":"Polygon","coordinates":[[[26.47979220445559,68.05644005640086],[27.132266190498203,67.55089296650316],[27.279375651874425,67.55549883549185],[27.529933841500963,68.09042984235349],[26.893929209865508,68.52914520288498],[26.596657619111383,68.66054493142843],[26.55681901925064,68.6635859768492],[26.511938141618987,68.58418079902312],[26.47979220445559,68.05644005640086]]]}},{"type":"Feature","properties":{"name":"Inari Saariselkä matkailukeskus","area":548.2589833210887},"geometry":{"type":"Polygon","coordinates":[[[26.893929209865508,68.52914520288498],[27.529933841500963,68.09042984235349],[27.602958958045804,68.13136376634124],[27.375340613941802,68.51537949275783],[26.893929209865508,68.52914520288498]]]}},{"type":"Feature","properties":{"name":"Inari Saariselkä Kaunispää","area":675.3576307550139},"geometry":{"type":"Polygon","coordinates":[[[27.375340613941802,68.51537949275783],[27.602958958045804,68.13136376634124],[27.88281318288719,68.26880539749905],[27.866442342783714,68.58725004180226],[27.375340613941802,68.51537949275783]]]}},{"type":"Feature","properties":{"name":"Inari Raja-Jooseppi Kontiojärvi","area":2375.960703396757},"geometry":{"type":"Polygon","coordinates":[[[28.105848537655078,68.08017333028442],[28.351286638815573,67.86473246300122],[28.545934675016053,67.8422582600155],[28.828033582044537,68.20211172081567],[28.67,68.23],[28.49,68.52],[28.51,68.55],[28.70529263140413,68.6773647596114],[28.406147703229237,68.66424513017357],[28.105848537655078,68.08017333028442]]]}},{"type":"Feature","properties":{"name":"Inari Raja-Jooseppi","area":908.5130219413799},"geometry":{"type":"Polygon","coordinates":[[[27.866442342783714,68.58725004180226],[27.88281318288719,68.26880539749905],[28.105848537655078,68.08017333028442],[28.406147703229237,68.66424513017357],[27.877791483554255,68.66122822868222],[27.866442342783714,68.58725004180226]]]}},{"type":"Feature","properties":{"name":"Salla Värriötunturi","area":42904.60360772253},"geometry":{"type":"Polygon","coordinates":[[[29.395877869627668,67.4543934896597],[29.621137784020416,67.2877844460051],[29.67,67.3],[29.69,67.34],[29.73,67.35],[29.97,67.5],[30.06,67.68],[30.02,67.72],[29.68,67.84],[29.425716423202257,68.04805019919816],[29.395877869627668,67.4543934896597]]]}},{"type":"Feature","properties":{"name":"Enontekiö Kilpisjärvi kyläkeskus","area":40663.00651003219},"geometry":{"type":"Polygon","coordinates":[[[20.51,69.04],[20.53,69.02],[20.79,68.99],[20.81,68.97],[20.81,68.91],[20.849419676646637,68.87058032335337],[20.822815741150475,69.13604755067084],[20.73,69.16],[20.53,69.1],[20.51,69.08],[20.51,69.04]]]}},{"type":"Feature","properties":{"name":"Enontekiö Kilpisjärvi Saana","area":25118.454392900414},"geometry":{"type":"Polygon","coordinates":[[[20.822815741150475,69.13604755067084],[20.849419676646637,68.87058032335337],[20.87,68.85],[21.01,68.85],[21.22,68.78],[21.29,68.72],[21.37,68.73],[21.38,68.68],[21.42,68.65],[21.6,68.63],[21.62,68.61],[21.65,68.61],[21.66,68.58],[21.7,68.55],[21.9,68.54],[21.92,68.52],[21.95,68.52],[21.99,68.46],[22.03,68.44],[22.06992390506629,68.44],[22.21005087875503,68.96989824248993],[22.2,68.99],[21.63,69.32],[21.25,69.35],[20.98,69.26],[20.95,69.21],[20.95,69.17],[21.04,69.08],[20.822815741150475,69.13604755067084]]]}},{"type":"Feature","properties":{"name":"Enontekiö Näkkälä","area":20353.18250842455},"geometry":{"type":"Polygon","coordinates":[[[23.188899993839563,68.6743615370399],[23.779485365827522,68.31161633111707],[24.304674863383372,68.75633128415416],[24.21,68.78],[24.17,68.83],[24.08,68.82],[23.99,68.87],[23.87,68.88],[23.76,68.86],[23.66,68.74],[23.43,68.73],[23.188899993839563,68.6743615370399]]]}},{"type":"Feature","properties":{"name":"Inari Angeli Lintupuoliselkä","area":15738.986275648447},"geometry":{"type":"Polygon","coordinates":[[[24.882989623292854,68.6259792465857],[24.91342670880616,68.57554401839793],[25.031186568396404,68.48988598962856],[26.511938141618987,68.58418079902312],[26.55681901925064,68.6635859768492],[26.477767357175168,69.17166226887807],[26.077823700252544,69.7669874071609],[25.98,69.76],[25.85,69.68],[25.85,69.65],[25.87,69.63],[25.92,69.61],[25.81,69.58],[25.8,69.53],[25.81,69.5],[25.75,69.43],[25.76,69.38],[25.72,69.36],[25.7,69.33],[25.7,69.29],[25.66,69.27],[25.65,69.19],[25.69,69.14],[25.68,69.07],[25.71,69.03],[25.63,68.94],[25.58,68.92],[25.52,68.94],[25.43,68.94],[25.22,68.88],[25.19,68.85],[25.14,68.84],[25.1,68.8],[25.06,68.66],[25.03,68.67],[24.94,68.66],[24.89,68.64],[24.882989623292854,68.6259792465857]]]}},{"type":"Feature","properties":{"name":"Inari Ivalo lentoasema","area":1362.6052592645924},"geometry":{"type":"Polygon","coordinates":[[[26.596657619111383,68.66054493142843],[26.893929209865508,68.52914520288498],[27.375340613941802,68.51537949275783],[27.866442342783714,68.58725004180226],[27.877791483554255,68.66122822868222],[27.84590855233608,68.78018242878204],[27.306449499301312,68.86671597345732],[26.596657619111383,68.66054493142843]]]}},{"type":"Feature","properties":{"name":"Utsjoki Kevo","area":8203.010927637155},"geometry":{"type":"Polygon","coordinates":[[[26.077823700252544,69.7669874071609],[26.477767357175168,69.17166226887807],[27.050900613865878,69.4127399136832],[26.982538251417733,69.97917091682419],[26.9,69.97],[26.87,70],[26.71,69.99],[26.59,70],[26.45,69.98],[26.37,69.92],[26.37,69.89],[26.23,69.86],[26.2,69.82],[26.13,69.79],[26.12,69.77],[26.077823700252544,69.7669874071609]]]}},{"type":"Feature","properties":{"name":"Utsjoki Nuorgam","area":7923.703252875495},"geometry":{"type":"Polygon","coordinates":[[[27.40395775285822,70.05637465171493],[27.560353411630707,69.6307771370724],[28.02914473148088,69.44323089883717],[28.233991591590655,69.51013286139957],[28.408475594187877,69.85858740096869],[28.4,69.86],[28.38,69.87],[28.39,69.88],[28.36,69.92],[28.17,69.96],[28.03,70.03],[27.98,70.13],[27.79,70.12],[27.74,70.1],[27.7,70.12],[27.57,70.11],[27.5,70.06],[27.41,70.06],[27.40395775285822,70.05637465171493]]]}},{"type":"Feature","properties":{"name":"Inari Väylä","area":1748.1685234837862},"geometry":{"type":"Polygon","coordinates":[[[27.306449499301312,68.86671597345732],[27.84590855233608,68.78018242878204],[28.02914473148088,69.44323089883717],[27.560353411630707,69.6307771370724],[27.5317908683918,69.61073610083417],[27.306449499301312,68.86671597345732]]]}},{"type":"Feature","properties":{"name":"Inari Kaamanen","area":2417.2905438562025},"geometry":{"type":"Polygon","coordinates":[[[26.477767357175168,69.17166226887807],[26.55681901925064,68.6635859768492],[26.596657619111383,68.66054493142843],[27.306449499301312,68.86671597345732],[27.5317908683918,69.61073610083417],[27.050900613865878,69.4127399136832],[26.477767357175168,69.17166226887807]]]}},{"type":"Feature","properties":{"name":"Inari Nellim","area":2970.222825460385},"geometry":{"type":"Polygon","coordinates":[[[27.84590855233608,68.78018242878204],[27.877791483554255,68.66122822868222],[28.406147703229237,68.66424513017357],[28.70529263140413,68.6773647596114],[28.74,68.7],[28.84,68.85],[28.84,68.89],[28.81,68.91],[28.63,68.93],[28.871964297523586,68.99244239936093],[28.233991591590655,69.51013286139957],[28.02914473148088,69.44323089883717],[27.84590855233608,68.78018242878204]]]}},{"type":"Feature","properties":{"name":"Inari Kirakkajärvi","area":31172.30660932728},"geometry":{"type":"Polygon","coordinates":[[[28.233991591590655,69.51013286139957],[28.871964297523586,68.99244239936093],[28.94,69.01],[28.97,69.04],[28.97,69.07],[28.95,69.09],[28.87,69.11],[28.85,69.13],[28.87,69.16],[28.87,69.2],[29.24,69.36],[29.37,69.45],[29.38,69.49],[29.2,69.66],[29.17,69.72],[29.12,69.74],[28.408475594187877,69.85858740096869],[28.233991591590655,69.51013286139957]]]}},{"type":"Feature","properties":{"name":"Mäntsälä Hirvihaara","area":1086.2725898939154},"geometry":{"type":"Polygon","coordinates":[[[24.983440349666154,60.792744460516616],[25.004310937107395,60.536811016219126],[25.152176975483435,60.4274428792409],[25.175872919090505,60.41808881792427],[25.328723343587132,60.4189933878015],[25.381940947944376,60.47742434636337],[25.500700031891647,60.68568674907553],[25.315543783078503,60.913465441190354],[24.983440349666154,60.792744460516616]]]}},{"type":"Feature","properties":{"name":"Lahti Sopenkorpi","area":1481.9044357020252},"geometry":{"type":"Polygon","coordinates":[[[25.315543783078503,60.913465441190354],[25.500700031891647,60.68568674907553],[26.052182994334665,60.67348265902095],[25.779953770713337,61.19211054647448],[25.332567765692,61.03815223616996],[25.315543783078503,60.913465441190354]]]}},{"type":"Feature","properties":{"name":"Sipoo Itätoukki","area":651.4556101441176},"geometry":{"type":"Polygon","coordinates":[[[25.08279059208642,59.98557667952093],[25.137064084788115,59.89],[25.352753449925817,59.89],[25.418026379661757,60.118480678483635],[25.416814922948166,60.12357007177404],[25.400555120018467,60.152053630362666],[25.09873235393172,60.15629476545284],[25.08560871050751,60.14342014095775],[25.08279059208642,59.98557667952093]]]}},{"type":"Feature","properties":{"name":"Rauma Pyynpää","area":1784.7046548658775},"geometry":{"type":"Polygon","coordinates":[[[21.395200845057687,60.783006466646974],[21.540124082201945,60.612206328309846],[21.639703422552348,60.62999546652942],[21.814353267086858,60.763790092389904],[21.967879840049168,60.91311498969411],[21.96976896884653,60.91543933642982],[21.953123230359445,61.034309879536075],[21.73530228688898,61.231717473375824],[21.516482931762734,61.403423055354736],[21.417993743482732,61.375705520551655],[21.395200845057687,60.783006466646974]]]}},{"type":"Feature","properties":{"name":"Muonio Oustajärvi","area":5058.855500930431},"geometry":{"type":"MultiPolygon","coordinates":[[[[23.35,67.48],[23.39,67.43],[23.46,67.41],[23.57,67.42],[23.68,67.4],[23.68,67.37],[23.707888923314975,67.33281476891337],[23.947090000022122,67.38474935293347],[23.91706403730771,67.87351928570997],[23.769765795893615,68.29189461532808],[23.363180822535078,68.01609150647896],[23.39,68],[23.44,68],[23.45,67.98],[23.51,67.97],[23.54,67.94],[23.47,67.9],[23.43,67.83],[23.45,67.78],[23.44,67.68],[23.49,67.61],[23.44,67.6],[23.42,67.58],[23.42,67.55],[23.39,67.54],[23.35,67.48]]],[[[23.544819145000982,67.29740957250048],[23.665923347844572,67.32370333540636],[23.57,67.31],[23.544819145000982,67.29740957250048]]]]}},{"type":"Feature","properties":{"name":"Pyhtää lentokenttä","area":1232.1212129446972},"geometry":{"type":"Polygon","coordinates":[[[26.094716810843643,60.67123193940572],[26.719226227107697,60.24393135391324],[26.794710071791442,60.494365410020556],[26.40097205504096,60.903849207350646],[26.094716810843643,60.67123193940572]]]}},{"type":"Feature","properties":{"name":"Kuusamo Välikangas","area":300.53409472775905},"geometry":{"type":"Polygon","coordinates":[[[28.699617105292504,65.83851210069757],[28.71790861395431,65.79496230971264],[29.45067111912196,66.08437271091388],[29.335816480454913,66.14654687046796],[29.099252723898843,66.0430748631669],[28.699617105292504,65.83851210069757]]]}},{"type":"Feature","properties":{"name":"Sotkamo Tuhkakylä","area":1894.5782210833172},"geometry":{"type":"Polygon","coordinates":[[[27.667038543491167,63.77331937223805],[27.70755465420237,63.554376342492574],[28.11809326156998,63.450873509463264],[28.35425363910113,63.680852118230334],[28.08250987135616,64.33015990147587],[28.06609841368022,64.33008567707388],[27.667038543491167,63.77331937223805]]]}},{"type":"Feature","properties":{"name":"Tervola Loue","area":2840.772453699459},"geometry":{"type":"Polygon","coordinates":[[[24.618799667625503,66.15924437953905],[25.149578363479794,65.56512154411415],[25.508652635370513,65.69124749722896],[25.62782601307142,65.74606228485588],[25.183834250411593,66.67124686012696],[24.618799667625503,66.15924437953905]]]}},{"type":"Feature","properties":{"name":"Savukoski Tulppio","area":3548.939385268122},"geometry":{"type":"Polygon","coordinates":[[[28.545934675016053,67.8422582600155],[28.710686305297653,67.49208557887881],[29.395877869627668,67.4543934896597],[29.425716423202257,68.04805019919816],[29.35,68.11],[28.828033582044537,68.20211172081567],[28.545934675016053,67.8422582600155]]]}},{"type":"Feature","properties":{"name":"Inkoo Jakobramsjö","area":506.27041516007085},"geometry":{"type":"Polygon","coordinates":[[[23.691669087845376,60.13289265956091],[23.78764508261804,59.89968114845325],[24.185182214996452,60.01537384461629],[24.19912247682193,60.081447555538105],[23.752632348738473,60.1777980591206],[23.691669087845376,60.13289265956091]]]}},{"type":"Feature","properties":{"name":"Oulu Kaukovainio","area":3193.855375331862},"geometry":{"type":"Polygon","coordinates":[[[25.450785249013396,64.90663381750528],[25.5682437277484,64.5586853993438],[25.850463322125243,64.5259841099202],[26.235060185001405,65.22586019193056],[26.23099636274578,65.24037846371874],[25.6473034001772,65.74364335648994],[25.62782601307142,65.74606228485588],[25.508652635370513,65.69124749722896],[25.450785249013396,64.90663381750528]]]}},{"type":"Feature","properties":{"name":"Pori Isomäki","area":328.78393615841617},"geometry":{"type":"Polygon","coordinates":[[[21.516482931762734,61.403423055354736],[21.73530228688898,61.231717473375824],[21.79192670115749,61.46434239915819],[21.598450912466685,61.605052063660565],[21.516482931762734,61.403423055354736]]]}},{"type":"Feature","properties":{"name":"Kajaani Petäisenniska","area":841.0060792561067},"geometry":{"type":"Polygon","coordinates":[[[27.50686947757861,63.999728411802046],[27.667038543491167,63.77331937223805],[28.06609841368022,64.33008567707388],[27.880643176725606,64.45648756018495],[27.50686947757861,63.999728411802046]]]}},{"type":"Feature","properties":{"name":"Utsjoki Kevo Kevojärvi","area":2355.8233295589725},"geometry":{"type":"Polygon","coordinates":[[[26.982538251417733,69.97917091682419],[27.050900613865878,69.4127399136832],[27.5317908683918,69.61073610083417],[27.560353411630707,69.6307771370724],[27.40395775285822,70.05637465171493],[27.36,70.03],[27.26,70.02],[27.24,69.99],[27.21,69.98],[27.05,69.95],[26.99,69.98],[26.982538251417733,69.97917091682419]]]}},{"type":"Feature","properties":{"name":"Ilmajoki Seinäjoki lentoasema","area":1661.6115220158445},"geometry":{"type":"Polygon","coordinates":[[[22.50056037020019,62.58022238609445],[22.551240558362675,62.45755198280686],[23.14154157322287,62.407159859628344],[23.30875549726461,62.73401850694766],[22.783394398976863,62.97688710910121],[22.50056037020019,62.58022238609445]]]}},{"type":"Feature","properties":{"name":"Rovaniemi lentoasema AWOS","area":1218.1797655208245},"geometry":{"type":"Polygon","coordinates":[[[25.44261835084599,67.16605456144312],[25.669459413554886,66.74040760229246],[25.93375874466896,66.47763307501187],[25.89982474577287,67.30292012002205],[25.829811060920886,67.37175731180095],[25.68071598314754,67.3656584982116],[25.44261835084599,67.16605456144312]]]}},{"type":"Feature","properties":{"name":"Jyväskylä lentoasema AWOS","area":1480.5453013042757},"geometry":{"type":"Polygon","coordinates":[[[25.59659593503729,62.04899556265549],[25.73465722352998,62.01225150595239],[26.235663084995224,62.40822064526495],[26.047592695628985,62.67017964349508],[25.762560376059664,62.740514066915146],[25.59659593503729,62.04899556265549]]]}},{"type":"Feature","properties":{"name":"Puumala kirkonkylä","area":1818.8278527229686},"geometry":{"type":"Polygon","coordinates":[[[27.651069691045443,61.33986735496187],[28.230597779452488,61.272853559789105],[28.620849755011836,61.61971344442589],[28.24987759204435,61.88134969410146],[27.66209646071699,61.40520375385161],[27.651069691045443,61.33986735496187]]]}},{"type":"Feature","properties":{"name":"Helsinki Vuosaari satama","area":368.3563631708338},"geometry":{"type":"Polygon","coordinates":[[[25.09873235393172,60.15629476545284],[25.400555120018467,60.152053630362666],[25.328723343587132,60.4189933878015],[25.175872919090505,60.41808881792427],[25.09873235393172,60.15629476545284]]]}},{"type":"Feature","properties":{"name":"Maarianhamina Länsisatama","area":108.20267218381322},"geometry":{"type":"Polygon","coordinates":[[[19.769091899622772,59.99312789683708],[20.083082554090787,60.0516286887168],[19.951786163329235,60.13891781774981],[19.769091899622772,59.99312789683708]]]}},{"type":"Feature","properties":{"name":"Lumparland Långnäs satama","area":1763.5773924493737},"geometry":{"type":"Polygon","coordinates":[[[20.12191987490134,60.0457586934389],[20.232616977755356,59.802857904550216],[20.633697888738777,59.835551936603714],[20.317392699459383,60.83369373517744],[20.287369281766626,60.869797494074554],[20.12191987490134,60.0457586934389]]]}},{"type":"Feature","properties":{"name":"Kittilä Lompolonvuoma","area":78.0902063580411},"geometry":{"type":"Polygon","coordinates":[[[24.138925866366062,68.07724770042368],[24.190682220663454,67.87612995642935],[24.225566018740444,67.99000428654199],[24.204096072850994,68.25288230401266],[24.138925866366062,68.07724770042368]]]}},{"type":"Feature","properties":{"name":"Kuusamo Ruka Talvijärvi","area":1358.485204378731},"geometry":{"type":"Polygon","coordinates":[[[28.47239402471225,66.18838484698493],[28.699617105292504,65.83851210069757],[29.099252723898843,66.0430748631669],[29.190942410485892,66.30017543123427],[28.945552901781877,66.51715324068462],[28.47239402471225,66.18838484698493]]]}},{"type":"Feature","properties":{"name":"Espoo Nuuksio","area":580.1902049316499},"geometry":{"type":"Polygon","coordinates":[[[24.345416396922403,60.17209847343901],[24.575749393720308,60.03717639091799],[24.756942299300412,60.388352580084394],[24.599753273581523,60.50969790491876],[24.345416396922403,60.17209847343901]]]}},{"type":"Feature","properties":{"name":"Mikkeli Lentoasema AWOS","area":2017.0043704324307},"geometry":{"type":"Polygon","coordinates":[[[27.106876024185297,61.28343631129974],[27.517355723360815,61.14928864095762],[27.651069691045443,61.33986735496187],[27.66209646071699,61.40520375385161],[27.443034107025042,62.13106508177164],[27.338996944758286,62.24599278927394],[27.106876024185297,61.28343631129974]]]}},{"type":"Feature","properties":{"name":"Espoo Tapiola","area":467.0892723209541},"geometry":{"type":"Polygon","coordinates":[[[24.575749393720308,60.03717639091799],[24.63844206171051,59.93100077811413],[24.84939412254004,60.05894095981641],[24.864644687842404,60.09828888369057],[24.86712742466118,60.24069286852245],[24.862071436982927,60.27571817280511],[24.770458700240752,60.387849984203335],[24.756942299300412,60.388352580084394],[24.575749393720308,60.03717639091799]]]}}]}